[{"OBJECT_NAME":"STARLINK-34235","OBJECT_ID":"2025-147F","EPOCH":"2026-03-09T18:25:19.566912","MEAN_MOTION":15.30209391,"ECCENTRICITY":0.00011957,"INCLINATION":53.1592,"RA_OF_ASC_NODE":242.3932,"ARG_OF_PERICENTER":107.8443,"MEAN_ANOMALY":252.2689,"EPHEMERIS_TYPE":0,"CLASSIFICATION_TYPE":"U","NORAD_CAT_ID":64760,"ELEMENT_SET_NO":999,"REV_AT_EPOCH":3880,"BSTAR":0.00051145379,"MEAN_MOTION_DOT":0.00014823,"MEAN_MOTION_DDOT":0},{"OBJECT_NAME":"CZ-2C R\/B","OBJECT_ID":"2024-218A","EPOCH":"2026-03-09T22:16:31.791072","MEAN_MOTION":15.22960743,"ECCENTRICITY":0.00453409,"INCLINATION":97.5416,"RA_OF_ASC_NODE":83.973,"ARG_OF_PERICENTER":359.5317,"MEAN_ANOMALY":0.5869,"EPHEMERIS_TYPE":0,"CLASSIFICATION_TYPE":"U","NORAD_CAT_ID":62078,"ELEMENT_SET_NO":999,"REV_AT_EPOCH":7134,"BSTAR":0.00039378379,"MEAN_MOTION_DOT":9.445e-5,"MEAN_MOTION_DDOT":0}]
